{
"type": "FeatureCollection",
"name": "icebergs",
"crs": { "type": "name", "properties": { "name": "urn:ogc:def:crs:EPSG::3412" } },
"features": [
{ "type": "Feature", "properties": { "id": "A76C", "length_nm": 16, "width_nm": 7, "lat": -53.73, "lon": -29.5, "date_observed": "08/27/2026", "source": "USNIC" }, "geometry": { "type": "Point", "coordinates": [ -1999488.195600087288767, 3534083.421271448489279 ] } },
{ "type": "Feature", "properties": { "id": "A81", "length_nm": 28, "width_nm": 25, "lat": -58.74, "lon": -49.94, "date_observed": "08/27/2026", "source": "USNIC" }, "geometry": { "type": "Point", "coordinates": [ -2655508.015637990552932, 2232978.765051202382892 ] } },
{ "type": "Feature", "properties": { "id": "A83", "length_nm": 12, "width_nm": 7, "lat": -61.12, "lon": -50.36, "date_observed": "08/27/2026", "source": "USNIC" }, "geometry": { "type": "Point", "coordinates": [ -2459481.279059681110084, 2037553.684604634298012 ] } },
{ "type": "Feature", "properties": { "id": "A84", "length_nm": 12, "width_nm": 6, "lat": -71.58, "lon": -101.73, "date_observed": "08/27/2026", "source": "USNIC" }, "geometry": { "type": "Point", "coordinates": [ -1970083.038176682544872, -409060.472351141797844 ] } },
{ "type": "Feature", "properties": { "id": "A85", "length_nm": 10, "width_nm": 3, "lat": -62.85, "lon": -53.38, "date_observed": "08/27/2026", "source": "USNIC" }, "geometry": { "type": "Point", "coordinates": [ -2403994.477272510062903, 1786666.186612375313416 ] } },
{ "type": "Feature", "properties": { "id": "B09B", "length_nm": 27, "width_nm": 10, "lat": -66.07, "lon": 143.15, "date_observed": "08/27/2026", "source": "USNIC" }, "geometry": { "type": "Point", "coordinates": [ 1576763.821031685685739, -2103873.515086034778506 ] } },
{ "type": "Feature", "properties": { "id": "B09G", "length_nm": 12, "width_nm": 7, "lat": -68.18, "lon": 41.5, "date_observed": "08/27/2026", "source": "USNIC" }, "geometry": { "type": "Point", "coordinates": [ 1584713.07860304042697, 1791192.296739067416638 ] } },
{ "type": "Feature", "properties": { "id": "B22A", "length_nm": 29, "width_nm": 25, "lat": -69.48, "lon": 170.13, "date_observed": "08/27/2026", "source": "USNIC" }, "geometry": { "type": "Point", "coordinates": [ 384999.767760912829544, -2212789.347051906399429 ] } },
{ "type": "Feature", "properties": { "id": "B22F", "length_nm": 14, "width_nm": 7, "lat": -67.16, "lon": -176.58, "date_observed": "08/27/2026", "source": "USNIC" }, "geometry": { "type": "Point", "coordinates": [ -149508.004919655155391, -2501754.886606684885919 ] } },
{ "type": "Feature", "properties": { "id": "B22H", "length_nm": 8, "width_nm": 6, "lat": -70.21, "lon": 163.73, "date_observed": "08/27/2026", "source": "USNIC" }, "geometry": { "type": "Point", "coordinates": [ 606429.956898833625019, -2077866.80900848004967 ] } },
{ "type": "Feature", "properties": { "id": "B51", "length_nm": 15, "width_nm": 3, "lat": -74.25, "lon": -131.68, "date_observed": "08/27/2026", "source": "USNIC" }, "geometry": { "type": "Point", "coordinates": [ -1282064.722314318176359, -1141475.469303095480427 ] } },
{ "type": "Feature", "properties": { "id": "C15", "length_nm": 14, "width_nm": 10, "lat": -65.84, "lon": 143.02, "date_observed": "08/27/2026", "source": "USNIC" }, "geometry": { "type": "Point", "coordinates": [ 1597174.179126138333231, -2121061.773683854844421 ] } },
{ "type": "Feature", "properties": { "id": "C18B", "length_nm": 10, "width_nm": 4, "lat": -67.03, "lon": 47.38, "date_observed": "08/27/2026", "source": "USNIC" }, "geometry": { "type": "Point", "coordinates": [ 1854999.336833599023521, 1706954.750583849614486 ] } },
{ "type": "Feature", "properties": { "id": "C18C", "length_nm": 10, "width_nm": 2, "lat": -68.47, "lon": 39.07, "date_observed": "08/27/2026", "source": "USNIC" }, "geometry": { "type": "Point", "coordinates": [ 1486846.33889803243801, 1831522.549228462157771 ] } },
{ "type": "Feature", "properties": { "id": "C21B", "length_nm": 12, "width_nm": 8, "lat": -64.98, "lon": 95.83, "date_observed": "08/27/2026", "source": "USNIC" }, "geometry": { "type": "Point", "coordinates": [ 2738337.494993957225233, -279598.840258111071307 ] } },
{ "type": "Feature", "properties": { "id": "C24", "length_nm": 11, "width_nm": 3, "lat": -64.84, "lon": 96.02, "date_observed": "08/27/2026", "source": "USNIC" }, "geometry": { "type": "Point", "coordinates": [ 2753195.36909079644829, -290344.192562207754236 ] } },
{ "type": "Feature", "properties": { "id": "C30", "length_nm": 9, "width_nm": 3, "lat": -64.78, "lon": 96.27, "date_observed": "08/27/2026", "source": "USNIC" }, "geometry": { "type": "Point", "coordinates": [ 2758673.134866999462247, -303098.390629931353033 ] } },
{ "type": "Feature", "properties": { "id": "C31", "length_nm": 9, "width_nm": 3, "lat": -64.68, "lon": 96.49, "date_observed": "08/27/2026", "source": "USNIC" }, "geometry": { "type": "Point", "coordinates": [ 2768772.268430835101753, -314972.247338853310794 ] } },
{ "type": "Feature", "properties": { "id": "C36", "length_nm": 23, "width_nm": 16, "lat": -67.46, "lon": 146.48, "date_observed": "08/27/2026", "source": "USNIC" }, "geometry": { "type": "Point", "coordinates": [ 1365363.168418709654361, -2061275.04795586434193 ] } },
{ "type": "Feature", "properties": { "id": "C39", "length_nm": 8, "width_nm": 3, "lat": -65.9, "lon": 56.66, "date_observed": "08/27/2026", "source": "USNIC" }, "geometry": { "type": "Point", "coordinates": [ 2212514.636509023141116, 1455562.597729910863563 ] } },
{ "type": "Feature", "properties": { "id": "D15A", "length_nm": 51, "width_nm": 22, "lat": -66.63, "lon": 81.92, "date_observed": "08/27/2026", "source": "USNIC" }, "geometry": { "type": "Point", "coordinates": [ 2540465.104383790865541, 360657.019558684027288 ] } },
{ "type": "Feature", "properties": { "id": "D15B", "length_nm": 20, "width_nm": 12, "lat": -67.02, "lon": 81.58, "date_observed": "08/27/2026", "source": "USNIC" }, "geometry": { "type": "Point", "coordinates": [ 2494798.946724551264197, 369289.74119062628597 ] } },
{ "type": "Feature", "properties": { "id": "D15C", "length_nm": 14, "width_nm": 7, "lat": -67.22, "lon": 79.41, "date_observed": "08/27/2026", "source": "USNIC" }, "geometry": { "type": "Point", "coordinates": [ 2456892.147257586475462, 459351.05533953930717 ] } },
{ "type": "Feature", "properties": { "id": "D15D", "length_nm": 8, "width_nm": 6, "lat": -67.29, "lon": 79.3, "date_observed": "08/27/2026", "source": "USNIC" }, "geometry": { "type": "Point", "coordinates": [ 2448264.91843484994024, 462604.458818350161891 ] } },
{ "type": "Feature", "properties": { "id": "D23", "length_nm": 7, "width_nm": 6, "lat": -69.44, "lon": 74.71, "date_observed": "08/27/2026", "source": "USNIC" }, "geometry": { "type": "Point", "coordinates": [ 2170842.216278909705579, 593468.008142199949361 ] } },
{ "type": "Feature", "properties": { "id": "D32", "length_nm": 9, "width_nm": 6, "lat": -58.17, "lon": -37.1, "date_observed": "08/27/2026", "source": "USNIC" }, "geometry": { "type": "Point", "coordinates": [ -2132976.913046709727496, 2820301.025456053670496 ] } },
{ "type": "Feature", "properties": { "id": "D33A", "length_nm": 19, "width_nm": 10, "lat": -64.04, "lon": -55.89, "date_observed": "08/27/2026", "source": "USNIC" }, "geometry": { "type": "Point", "coordinates": [ -2367485.284838669467717, 1603510.729401390068233 ] } },
{ "type": "Feature", "properties": { "id": "D33B", "length_nm": 21, "width_nm": 12, "lat": -59.81, "lon": -49.94, "date_observed": "08/27/2026", "source": "USNIC" }, "geometry": { "type": "Point", "coordinates": [ -2560351.95333913853392, 2152963.391259088646621 ] } },
{ "type": "Feature", "properties": { "id": "D33C", "length_nm": 9, "width_nm": 5, "lat": -61.54, "lon": -53.58, "date_observed": "08/27/2026", "source": "USNIC" }, "geometry": { "type": "Point", "coordinates": [ -2531137.315546414814889, 1867479.507570085348561 ] } },
{ "type": "Feature", "properties": { "id": "D33D", "length_nm": 15, "width_nm": 6, "lat": -63.58, "lon": -55.24, "date_observed": "08/27/2026", "source": "USNIC" }, "geometry": { "type": "Point", "coordinates": [ -2392210.024521078448743, 1660153.671113204210997 ] } },
{ "type": "Feature", "properties": { "id": "D34", "length_nm": 11, "width_nm": 8, "lat": -67.16, "lon": 82.06, "date_observed": "08/27/2026", "source": "USNIC" }, "geometry": { "type": "Point", "coordinates": [ 2482191.853311552200466, 346199.017256323248148 ] } },
{ "type": "Feature", "properties": { "id": "D35", "length_nm": 15, "width_nm": 6, "lat": -60.65, "lon": -43.84, "date_observed": "08/27/2026", "source": "USNIC" }, "geometry": { "type": "Point", "coordinates": [ -2249762.231324842665344, 2342754.195070579648018 ] } },
{ "type": "Feature", "properties": { "id": "D37", "length_nm": 30, "width_nm": 7, "lat": -69.21, "lon": 36.36, "date_observed": "08/27/2026", "source": "USNIC" }, "geometry": { "type": "Point", "coordinates": [ 1349469.15438337624073, 1833053.301560437539592 ] } }
]
}
